ICEYE-X53               
1 64584U 25135BJ  26198.95854590  .00001361  00000+0  11163-3 0  9999
2 64584  97.7358 315.6042 0002039 165.0225 195.1060 15.00900404 58697
ICEYE-X65               
1 66300U 25248H   26198.42571367  .00001524  00000+0  11365-3 0  9997
2 66300  45.4068 335.1699 0005696 210.6035 149.4515 15.07935989 40080
ICEYE-X66               
1 66301U 25248J   26198.75252895  .00001596  00000+0  11449-3 0  9998
2 66301  45.4025 332.5054 0005415 208.4694 151.5892 15.09187062 40125
ICEYE-X67               
1 66302U 25248K   26198.77724427  .00001674  00000+0  11939-3 0  9997
2 66302  45.4060 331.9548 0006972 208.1995 151.8510 15.09168753 40144
ICEYE-X58               
1 66751U 25276CP  26198.91744713  .00001382  00000+0  72625-4 0  9998
2 66751  97.4196 271.7401 0002434 200.2377 159.8761 15.17314803 35074
ICEYE-X59               
1 66752U 25276CQ  26198.94613625  .00002593  00000+0  20881-3 0  9990
2 66752  97.4397 268.9294 0001134 134.2006 225.9311 15.00767543 34886
ICEYE-X60               
1 66753U 25276CR  26198.18658909  .00001984  00000+0  12355-3 0  9991
2 66753  97.4241 269.9598 0002281 357.9600   2.1620 15.10704246 34892
ICEYE-X61               
1 66754U 25276CS  26197.74724750  .00001571  00000+0  79163-4 0  9994
2 66754  97.4193 270.6864 0002212 207.8838 152.2279 15.18614124 34906
ICEYE-X62               
1 66755U 25276CT  26197.74931553  .00002915  00000+0  18243-3 0  9990
2 66755  97.4179 269.0335 0001129 210.4552 149.6612 15.10153672 34791
ICEYE-X63               
1 67372U 26004K   26198.94073074  .00000453  00000+0  54782-4 0  9998
2 67372  97.8015 197.1015 0005246  44.7224 315.4415 14.88351835 27874
ICEYE-X64               
1 67373U 26004L   26198.92286018  .00000593  00000+0  70507-4 0  9999
2 67373  97.8028 197.0019 0007101  46.8615 313.3194 14.87991079 27860
ICEYE-X71               
1 68494U 26067CG  26197.84474902 -.00131048  00000+0 -13483-1 0  9993
2 68494  97.7615 155.6278 0001106 309.5790  50.5331 14.91078756 16140
ICEYE-X73               
1 68496U 26067CJ  26198.87682450  .00001088  00000+0  11187-3 0  9997
2 68496  97.7624 156.7320 0001770 143.9220 216.2119 14.92355106 16308
ICEYE-X75               
1 68497U 26067CK  26198.88162637  .00000498  00000+0  54366-4 0  9990
2 68497  97.7607 156.7027 0001664 140.7892 219.3448 14.92176429 16304
ICEYE-X74               
1 68500U 26067CN  26198.84924941  .00001183  00000+0  12280-3 0  9995
2 68500  97.7633 156.6274 0000643 329.6837  30.4345 14.91800079 16294
ICEYE-X76               
1 68502U 26067CQ  26198.84521949  .00000520  00000+0  57113-4 0  9997
2 68502  97.7641 156.6417 0000445 283.6065  76.5105 14.91753989 16298
